{
  "type": "FeatureCollection",
  "features": [
    {
      "type": "Feature",
      "properties": {
        "norad_id": 31431,
        "name": "FENGYUN 1C DEB",
        "group": "fengyun-1c-debris",
        "lat": 74.05126661431989,
        "lon": -166.6095987333921,
        "alt_km": 811.4820969450402,
        "timestamp": "2025-12-02T07:10:09.397672+00:00",
        "meta_object_name": "FENGYUN 1C DEB",
        "meta_object_id": "1999-025BTT",
        "meta_epoch": "2025-12-01T03:25:16.634496",
        "meta_mean_motion": 14.02998027,
        "meta_eccentricity": 0.01326451,
        "meta_inclination": 98.5402,
        "meta_ra_of_asc_node": 224.0275,
        "meta_arg_of_pericenter": 128.0256,
        "meta_mean_anomaly": 233.2972,
        "meta_ephemeris_type": 0,
        "meta_classification_type": "U",
        "meta_norad_cat_id": 31431,
        "meta_element_set_no": 999,
        "meta_rev_at_epoch": 94369,
        "meta_bstar": 0.0013482902,
        "meta_mean_motion_dot": 2.223e-05,
        "meta_mean_motion_ddot": 0,
        "tle_line1": "1 31431U 99025BTT 25335.14255364  .00002223  00000+0  13483-2 0  9994",
        "tle_line2": "2 31431  98.5402 224.0275 0132645 128.0256 233.2972 14.02998027943690"
      },
      "geometry": {
        "type": "Point",
        "coordinates": [
          -166.6095987333921,
          74.05126661431989
        ]
      }
    },
    {
      "type": "Feature",
      "properties": {
        "norad_id": 31433,
        "name": "FENGYUN 1C DEB",
        "group": "fengyun-1c-debris",
        "lat": -66.5851214333412,
        "lon": 40.21752657800294,
        "alt_km": 885.9834692288086,
        "timestamp": "2025-12-02T07:10:09.397684+00:00",
        "meta_object_name": "FENGYUN 1C DEB",
        "meta_object_id": "1999-025BTV",
        "meta_epoch": "2025-12-01T16:47:05.982720",
        "meta_mean_motion": 14.25220314,
        "meta_eccentricity": 0.0100007,
        "meta_inclination": 98.4103,
        "meta_ra_of_asc_node": 239.6196,
        "meta_arg_of_pericenter": 61.0826,
        "meta_mean_anomaly": 353.7473,
        "meta_ephemeris_type": 0,
        "meta_classification_type": "U",
        "meta_norad_cat_id": 31433,
        "meta_element_set_no": 999,
        "meta_rev_at_epoch": 95395,
        "meta_bstar": 0.0023489,
        "meta_mean_motion_dot": 5.78e-05,
        "meta_mean_motion_ddot": 0,
        "tle_line1": "1 31433U 99025BTV 25335.69937480  .00005780  00000+0  23489-2 0  9990",
        "tle_line2": "2 31433  98.4103 239.6196 0100007  61.0826 353.7473 14.25220314953955"
      },
      "geometry": {
        "type": "Point",
        "coordinates": [
          40.21752657800294,
          -66.5851214333412
        ]
      }
    },
    {
      "type": "Feature",
      "properties": {
        "norad_id": 31435,
        "name": "FENGYUN 1C DEB",
        "group": "fengyun-1c-debris",
        "lat": -8.592618511455594,
        "lon": 148.68392684085705,
        "alt_km": 798.5338505229711,
        "timestamp": "2025-12-02T07:10:09.397695+00:00",
        "meta_object_name": "FENGYUN 1C DEB",
        "meta_object_id": "1999-025BTX",
        "meta_epoch": "2025-11-30T10:35:53.818368",
        "meta_mean_motion": 14.53382079,
        "meta_eccentricity": 0.01486144,
        "meta_inclination": 99.0365,
        "meta_ra_of_asc_node": 145.3041,
        "meta_arg_of_pericenter": 217.1529,
        "meta_mean_anomaly": 141.9308,
        "meta_ephemeris_type": 0,
        "meta_classification_type": "U",
        "meta_norad_cat_id": 31435,
        "meta_element_set_no": 999,
        "meta_rev_at_epoch": 98194,
        "meta_bstar": 0.0003078086,
        "meta_mean_motion_dot": 1.42e-05,
        "meta_mean_motion_ddot": 0,
        "tle_line1": "1 31435U 99025BTX 25334.44159512  .00001420  00000+0  30781-3 0  9997",
        "tle_line2": "2 31435  99.0365 145.3041 0148614 217.1529 141.9308 14.53382079981948"
      },
      "geometry": {
        "type": "Point",
        "coordinates": [
          148.68392684085705,
          -8.592618511455594
        ]
      }
    },
    {
      "type": "Feature",
      "properties": {
        "norad_id": 31436,
        "name": "FENGYUN 1C DEB",
        "group": "fengyun-1c-debris",
        "lat": -79.12862683455931,
        "lon": -46.604395718518916,
        "alt_km": 567.1364413982546,
        "timestamp": "2025-12-02T07:10:09.397705+00:00",
        "meta_object_name": "FENGYUN 1C DEB",
        "meta_object_id": "1999-025BTY",
        "meta_epoch": "2025-12-01T01:42:10.476576",
        "meta_mean_motion": 14.91841107,
        "meta_eccentricity": 0.00470789,
        "meta_inclination": 98.8819,
        "meta_ra_of_asc_node": 186.5269,
        "meta_arg_of_pericenter": 280.294,
        "meta_mean_anomaly": 233.3291,
        "meta_ephemeris_type": 0,
        "meta_classification_type": "U",
        "meta_norad_cat_id": 31436,
        "meta_element_set_no": 999,
        "meta_rev_at_epoch": 96702,
        "meta_bstar": 0.0048472753,
        "meta_mean_motion_dot": 0.00050253,
        "meta_mean_motion_ddot": 0,
        "tle_line1": "1 31436U 99025BTY 25335.07095459  .00050253  00000+0  48473-2 0  9991",
        "tle_line2": "2 31436  98.8819 186.5269 0047078 280.2940 233.3291 14.91841107967023"
      },
      "geometry": {
        "type": "Point",
        "coordinates": [
          -46.604395718518916,
          -79.12862683455931
        ]
      }
    },
    {
      "type": "Feature",
      "properties": {
        "norad_id": 31437,
        "name": "FENGYUN 1C DEB",
        "group": "fengyun-1c-debris",
        "lat": -54.14214450353038,
        "lon": -135.51148674854306,
        "alt_km": 750.5090890364509,
        "timestamp": "2025-12-02T07:10:09.397715+00:00",
        "meta_object_name": "FENGYUN 1C DEB",
        "meta_object_id": "1999-025BTZ",
        "meta_epoch": "2025-11-30T04:07:48.785088",
        "meta_mean_motion": 14.42212338,
        "meta_eccentricity": 0.00143842,
        "meta_inclination": 98.8652,
        "meta_ra_of_asc_node": 54.7511,
        "meta_arg_of_pericenter": 284.0314,
        "meta_mean_anomaly": 75.9275,
        "meta_ephemeris_type": 0,
        "meta_classification_type": "U",
        "meta_norad_cat_id": 31437,
        "meta_element_set_no": 999,
        "meta_rev_at_epoch": 96329,
        "meta_bstar": 0.0026156537,
        "meta_mean_motion_dot": 8.591e-05,
        "meta_mean_motion_ddot": 0,
        "tle_line1": "1 31437U 99025BTZ 25334.17209242  .00008591  00000+0  26157-2 0  9992",
        "tle_line2": "2 31437  98.8652  54.7511 0014384 284.0314  75.9275 14.42212338963297"
      },
      "geometry": {
        "type": "Point",
        "coordinates": [
          -135.51148674854306,
          -54.14214450353038
        ]
      }
    },
    {
      "type": "Feature",
      "properties": {
        "norad_id": 31439,
        "name": "FENGYUN 1C DEB",
        "group": "fengyun-1c-debris",
        "lat": -19.52867935008445,
        "lon": -14.149026724110515,
        "alt_km": 1000.6592544455934,
        "timestamp": "2025-12-02T07:10:09.397725+00:00",
        "meta_object_name": "FENGYUN 1C DEB",
        "meta_object_id": "1999-025BUB",
        "meta_epoch": "2025-12-01T07:15:31.336128",
        "meta_mean_motion": 13.95544292,
        "meta_eccentricity": 0.0137549,
        "meta_inclination": 98.917,
        "meta_ra_of_asc_node": 341.6948,
        "meta_arg_of_pericenter": 193.1955,
        "meta_mean_anomaly": 183.8365,
        "meta_ephemeris_type": 0,
        "meta_classification_type": "U",
        "meta_norad_cat_id": 31439,
        "meta_element_set_no": 999,
        "meta_rev_at_epoch": 63073,
        "meta_bstar": 0.00089354,
        "meta_mean_motion_dot": 1.272e-05,
        "meta_mean_motion_ddot": 0,
        "tle_line1": "1 31439U 99025BUB 25335.30244602  .00001272  00000+0  89354-3 0  9997",
        "tle_line2": "2 31439  98.9170 341.6948 0137549 193.1955 183.8365 13.95544292630730"
      },
      "geometry": {
        "type": "Point",
        "coordinates": [
          -14.149026724110515,
          -19.52867935008445
        ]
      }
    },
    {
      "type": "Feature",
      "properties": {
        "norad_id": 31440,
        "name": "FENGYUN 1C DEB",
        "group": "fengyun-1c-debris",
        "lat": 0.09799605736758492,
        "lon": -115.84948457222019,
        "alt_km": 798.3776318926057,
        "timestamp": "2025-12-02T07:10:09.397735+00:00",
        "meta_object_name": "FENGYUN 1C DEB",
        "meta_object_id": "1999-025BUC",
        "meta_epoch": "2025-12-01T05:15:39.492576",
        "meta_mean_motion": 14.36498571,
        "meta_eccentricity": 0.0036828,
        "meta_inclination": 98.7468,
        "meta_ra_of_asc_node": 63.0395,
        "meta_arg_of_pericenter": 18.0824,
        "meta_mean_anomaly": 342.1662,
        "meta_ephemeris_type": 0,
        "meta_classification_type": "U",
        "meta_norad_cat_id": 31440,
        "meta_element_set_no": 999,
        "meta_rev_at_epoch": 96160,
        "meta_bstar": 0.0022437,
        "meta_mean_motion_dot": 6.596e-05,
        "meta_mean_motion_ddot": 0,
        "tle_line1": "1 31440U 99025BUC 25335.21920709  .00006596  00000+0  22437-2 0  9990",
        "tle_line2": "2 31440  98.7468  63.0395 0036828  18.0824 342.1662 14.36498571961606"
      },
      "geometry": {
        "type": "Point",
        "coordinates": [
          -115.84948457222019,
          0.09799605736758492
        ]
      }
    }
  ]
}